{"type": "FeatureCollection", "features": [ {"type": "Feature", "properties": {"norad_id": 38779, "name": "GSAT-10 (GAGAN/PRN 128)", "group": "gnss", "lat": 0.0066344746296516915, "lon": -69.58652483081767, "alt_km": 35795.09863183276, "timestamp": "2025-12-26T07:29:18.698228+00:00", "meta": {"OBJECT_NAME": "GSAT-10 (GAGAN/PRN 128)", "OBJECT_ID": "2012-051B", "EPOCH": "2025-12-25T21:36:38.577600", "MEAN_MOTION": 1.0027083, "ECCENTRICITY": 0.00021016, "INCLINATION": 0.0603, "RA_OF_ASC_NODE": 261.7681, "ARG_OF_PERICENTER": 219.4325, "MEAN_ANOMALY": 20.6441, "EPHEMERIS_TYPE": 0, "CLASSIFICATION_TYPE": "U", "NORAD_CAT_ID": 38779, "ELEMENT_SET_NO": 999, "REV_AT_EPOCH": 4836, "BSTAR": 0, "MEAN_MOTION_DOT": -1.43e-06, "MEAN_MOTION_DDOT": 0}, "tle": {"line1": "1 38779U 12051B   25359.90044650 -.00000143  00000+0  00000+0 0  9992", "line2": "2 38779   0.0603 261.7681 0002101 219.4325  20.6441  1.00270830 48365"}}, "geometry": {"type": "Point", "coordinates": [-69.58652483081767, 0.0066344746296516915]}}, {"type": "Feature", "properties": {"norad_id": 38833, "name": "GPS BIIF-3  (PRN 24)", "group": "gnss", "lat": -0.340130697759332, "lon": 150.4215026772088, "alt_km": 19975.39219276664, "timestamp": "2025-12-26T07:29:18.698239+00:00", "meta": {"OBJECT_NAME": "GPS BIIF-3  (PRN 24)", "OBJECT_ID": "2012-053A", "EPOCH": "2025-12-24T07:38:21.199488", "MEAN_MOTION": 2.00565058, "ECCENTRICITY": 0.01760755, "INCLINATION": 53.5598, "RA_OF_ASC_NODE": 150.7645, "ARG_OF_PERICENTER": 64.1634, "MEAN_ANOMALY": 297.6191, "EPHEMERIS_TYPE": 0, "CLASSIFICATION_TYPE": "U", "NORAD_CAT_ID": 38833, "ELEMENT_SET_NO": 999, "REV_AT_EPOCH": 9593, "BSTAR": 0, "MEAN_MOTION_DOT": 8.3e-07, "MEAN_MOTION_DDOT": 0}, "tle": {"line1": "1 38833U 12053A   25358.31830092  .00000083  00000+0  00000+0 0  9994", "line2": "2 38833  53.5598 150.7645 0176075  64.1634 297.6191  2.00565058 95932"}}, "geometry": {"type": "Point", "coordinates": [150.4215026772088, -0.340130697759332]}}, {"type": "Feature", "properties": {"norad_id": 38857, "name": "GSAT0103 (GALILEO-FM3)", "group": "gnss", "lat": -52.57769294104956, "lon": 43.314074227107334, "alt_km": 23219.502679216028, "timestamp": "2025-12-26T07:29:18.698251+00:00", "meta": {"OBJECT_NAME": "GSAT0103 (GALILEO-FM3)", "OBJECT_ID": "2012-055A", "EPOCH": "2025-12-22T21:54:43.252704", "MEAN_MOTION": 1.70473351, "ECCENTRICITY": 0.0002995, "INCLINATION": 55.698, "RA_OF_ASC_NODE": 106.3873, "ARG_OF_PERICENTER": 269.858, "MEAN_ANOMALY": 90.0891, "EPHEMERIS_TYPE": 0, "CLASSIFICATION_TYPE": "U", "NORAD_CAT_ID": 38857, "ELEMENT_SET_NO": 999, "REV_AT_EPOCH": 8200, "BSTAR": 0, "MEAN_MOTION_DOT": 1e-07, "MEAN_MOTION_DDOT": 0}, "tle": {"line1": "1 38857U 12055A   25356.91300061  .00000010  00000+0  00000+0 0  9994", "line2": "2 38857  55.6980 106.3873 0002995 269.8580  90.0891  1.70473351 82005"}}, "geometry": {"type": "Point", "coordinates": [43.314074227107334, -52.57769294104956]}}, {"type": "Feature", "properties": {"norad_id": 38953, "name": "BEIDOU-2 G6 (C02)", "group": "gnss", "lat": -2.3500570571376, "lon": -68.82496030637436, "alt_km": 35778.65924119251, "timestamp": "2025-12-26T07:29:18.698263+00:00", "meta": {"OBJECT_NAME": "BEIDOU-2 G6 (C02)", "OBJECT_ID": "2012-059A", "EPOCH": "2025-12-25T19:23:21.831648", "MEAN_MOTION": 1.00274917, "ECCENTRICITY": 0.00079696, "INCLINATION": 3.9805, "RA_OF_ASC_NODE": 75.3821, "ARG_OF_PERICENTER": 293.9957, "MEAN_ANOMALY": 99.9659, "EPHEMERIS_TYPE": 0, "CLASSIFICATION_TYPE": "U", "NORAD_CAT_ID": 38953, "ELEMENT_SET_NO": 999, "REV_AT_EPOCH": 4817, "BSTAR": 0, "MEAN_MOTION_DOT": -1.55e-06, "MEAN_MOTION_DDOT": 0}, "tle": {"line1": "1 38953U 12059A   25359.80789157 -.00000155  00000+0  00000+0 0  9994", "line2": "2 38953   3.9805  75.3821 0007969 293.9957  99.9659  1.00274917 48174"}}, "geometry": {"type": "Point", "coordinates": [-68.82496030637436, -2.3500570571376]}}, {"type": "Feature", "properties": {"norad_id": 38977, "name": "LUCH 5B (SDCM/PRN 125)", "group": "gnss", "lat": 6.562957755215804, "lon": -168.5633141832355, "alt_km": 35769.99048852152, "timestamp": "2025-12-26T07:29:18.698274+00:00", "meta": {"OBJECT_NAME": "LUCH 5B (SDCM/PRN 125)", "OBJECT_ID": "2012-061A", "EPOCH": "2025-12-24T23:17:34.998144", "MEAN_MOTION": 1.00271775, "ECCENTRICITY": 0.000662, "INCLINATION": 10.1058, "RA_OF_ASC_NODE": 51.5875, "ARG_OF_PERICENTER": 196.0598, "MEAN_ANOMALY": 179.1583, "EPHEMERIS_TYPE": 0, "CLASSIFICATION_TYPE": "U", "NORAD_CAT_ID": 38977, "ELEMENT_SET_NO": 999, "REV_AT_EPOCH": 4786, "BSTAR": 0, "MEAN_MOTION_DOT": -1.21e-06, "MEAN_MOTION_DDOT": 0}, "tle": {"line1": "1 38977U 12061A   25358.97054396 -.00000121  00000+0  00000+0 0  9993", "line2": "2 38977  10.1058  51.5875 0006620 196.0598 179.1583  1.00271775 47863"}}, "geometry": {"type": "Point", "coordinates": [-168.5633141832355, 6.562957755215804]}}, {"type": "Feature", "properties": {"norad_id": 39155, "name": "COSMOS 2485 (747)", "group": "gnss", "lat": 57.52732427327425, "lon": 125.59969108966284, "alt_km": 19184.263863477216, "timestamp": "2025-12-26T07:29:18.698286+00:00", "meta": {"OBJECT_NAME": "COSMOS 2485 (747)", "OBJECT_ID": "2013-019A", "EPOCH": "2025-12-25T06:49:20.356032", "MEAN_MOTION": 2.13103209, "ECCENTRICITY": 0.00250108, "INCLINATION": 65.3197, "RA_OF_ASC_NODE": 79.4456, "ARG_OF_PERICENTER": 230.5627, "MEAN_ANOMALY": 129.2639, "EPHEMERIS_TYPE": 0, "CLASSIFICATION_TYPE": "U", "NORAD_CAT_ID": 39155, "ELEMENT_SET_NO": 999, "REV_AT_EPOCH": 9857, "BSTAR": 0, "MEAN_MOTION_DOT": 0, "MEAN_MOTION_DDOT": 0}, "tle": {"line1": "1 39155U 13019A   25359.28426338  .00000000  00000+0  00000+0 0  9995", "line2": "2 39155  65.3197  79.4456 0025010 230.5627 129.2639  2.13103209 98576"}}, "geometry": {"type": "Point", "coordinates": [125.59969108966284, 57.52732427327425]}}, {"type": "Feature", "properties": {"norad_id": 39166, "name": "GPS BIIF-4  (PRN 27)", "group": "gnss", "lat": 53.423205762443814, "lon": 23.137118289607514, "alt_km": 19942.99160701805, "timestamp": "2025-12-26T07:29:18.698299+00:00", "meta": {"OBJECT_NAME": "GPS BIIF-4  (PRN 27)", "OBJECT_ID": "2013-023A", "EPOCH": "2025-12-24T04:22:45.402816", "MEAN_MOTION": 2.00564584, "ECCENTRICITY": 0.01386043, "INCLINATION": 54.6422, "RA_OF_ASC_NODE": 276.1031, "ARG_OF_PERICENTER": 48.7593, "MEAN_ANOMALY": 312.474, "EPHEMERIS_TYPE": 0, "CLASSIFICATION_TYPE": "U", "NORAD_CAT_ID": 39166, "ELEMENT_SET_NO": 999, "REV_AT_EPOCH": 9237, "BSTAR": 0, "MEAN_MOTION_DOT": -1.6e-07, "MEAN_MOTION_DDOT": 0}, "tle": {"line1": "1 39166U 13023A   25358.18246994 -.00000016  00000+0  00000+0 0  9996", "line2": "2 39166  54.6422 276.1031 0138604  48.7593 312.4740  2.00564584 92374"}}, "geometry": {"type": "Point", "coordinates": [23.137118289607514, 53.423205762443814]}}, {"type": "Feature", "properties": {"norad_id": 39199, "name": "IRNSS-1A", "group": "gnss", "lat": -9.041881442421149, "lon": -100.66148383599926, "alt_km": 35690.582057507425, "timestamp": "2025-12-26T07:29:18.698311+00:00", "meta": {"OBJECT_NAME": "IRNSS-1A", "OBJECT_ID": "2013-034A", "EPOCH": "2025-12-24T18:29:47.559840", "MEAN_MOTION": 1.00273605, "ECCENTRICITY": 0.00238143, "INCLINATION": 35.3368, "RA_OF_ASC_NODE": 66.3779, "ARG_OF_PERICENTER": 212.7296, "MEAN_ANOMALY": 146.6998, "EPHEMERIS_TYPE": 0, "CLASSIFICATION_TYPE": "U", "NORAD_CAT_ID": 39199, "ELEMENT_SET_NO": 999, "REV_AT_EPOCH": 4561, "BSTAR": 0, "MEAN_MOTION_DOT": 7.9e-07, "MEAN_MOTION_DDOT": 0}, "tle": {"line1": "1 39199U 13034A   25358.77068935  .00000079  00000+0  00000+0 0  9994", "line2": "2 39199  35.3368  66.3779 0023814 212.7296 146.6998  1.00273605 45619"}}, "geometry": {"type": "Point", "coordinates": [-100.66148383599926, -9.041881442421149]}}, {"type": "Feature", "properties": {"norad_id": 39533, "name": "GPS BIIF-5  (PRN 30)", "group": "gnss", "lat": 52.33782638785549, "lon": -96.52843235606011, "alt_km": 20299.228394952584, "timestamp": "2025-12-26T07:29:18.698322+00:00", "meta": {"OBJECT_NAME": "GPS BIIF-5  (PRN 30)", "OBJECT_ID": "2014-008A", "EPOCH": "2025-12-23T16:16:25.020768", "MEAN_MOTION": 2.00548852, "ECCENTRICITY": 0.00795532, "INCLINATION": 53.5993, "RA_OF_ASC_NODE": 156.4877, "ARG_OF_PERICENTER": 225.9161, "MEAN_ANOMALY": 133.4108, "EPHEMERIS_TYPE": 0, "CLASSIFICATION_TYPE": "U", "NORAD_CAT_ID": 39533, "ELEMENT_SET_NO": 999, "REV_AT_EPOCH": 8616, "BSTAR": 0, "MEAN_MOTION_DOT": 8.2e-07, "MEAN_MOTION_DDOT": 0}, "tle": {"line1": "1 39533U 14008A   25357.67806737  .00000082  00000+0  00000+0 0  9990", "line2": "2 39533  53.5993 156.4877 0079553 225.9161 133.4108  2.00548852 86167"}}, "geometry": {"type": "Point", "coordinates": [-96.52843235606011, 52.33782638785549]}}, {"type": "Feature", "properties": {"norad_id": 39617, "name": "ASTRA 5B (EGNOS/PRN 123)", "group": "gnss", "lat": -0.037838640392471284, "lon": -129.16974408175403, "alt_km": 35773.40012354532, "timestamp": "2025-12-26T07:29:18.698334+00:00", "meta": {"OBJECT_NAME": "ASTRA 5B (EGNOS/PRN 123)", "OBJECT_ID": "2014-011B", "EPOCH": "2025-12-25T21:11:12.554016", "MEAN_MOTION": 1.00271442, "ECCENTRICITY": 0.00046678, "INCLINATION": 0.0452, "RA_OF_ASC_NODE": 16.512, "ARG_OF_PERICENTER": 264.2496, "MEAN_ANOMALY": 155.1684, "EPHEMERIS_TYPE": 0, "CLASSIFICATION_TYPE": "U", "NORAD_CAT_ID": 39617, "ELEMENT_SET_NO": 999, "REV_AT_EPOCH": 4293, "BSTAR": 0, "MEAN_MOTION_DOT": 1.59e-06, "MEAN_MOTION_DDOT": 0}, "tle": {"line1": "1 39617U 14011B   25359.88278419  .00000159  00000+0  00000+0 0  9997", "line2": "2 39617   0.0452  16.5120 0004667 264.2496 155.1684  1.00271442 42939"}}, "geometry": {"type": "Point", "coordinates": [-129.16974408175403, -0.037838640392471284]}}]}